{
  "links" : {
    "next" : "https://api.nasa.gov/neo/rest/v1/feed?start_date=1996-09-16&end_date=1996-09-16&detailed=true&api_key=t0TVs3DtDT2H8Oy2Zy8m2eVrNsAVKAexjcZXUckd",
    "prev" : "https://api.nasa.gov/neo/rest/v1/feed?start_date=1996-09-14&end_date=1996-09-14&detailed=true&api_key=t0TVs3DtDT2H8Oy2Zy8m2eVrNsAVKAexjcZXUckd",
    "self" : "https://api.nasa.gov/neo/rest/v1/feed?start_date=1996-09-15&end_date=1996-09-15&detailed=true&api_key=t0TVs3DtDT2H8Oy2Zy8m2eVrNsAVKAexjcZXUckd"
  },
  "element_count" : 3,
  "near_earth_objects" : {
    "1996-09-15" : [ {
      "links" : {
        "self" : "https://api.nasa.gov/neo/rest/v1/neo/2429736?api_key=t0TVs3DtDT2H8Oy2Zy8m2eVrNsAVKAexjcZXUckd"
      },
      "neo_reference_id" : "2429736",
      "name" : "429736 (2011 MB2)",
      "nasa_jpl_url" : "http://ssd.jpl.nasa.gov/sbdb.cgi?sstr=2429736",
      "absolute_magnitude_h" : 20.3,
      "estimated_diameter" : {
        "kilometers" : {
          "estimated_diameter_min" : 0.2315021222,
          "estimated_diameter_max" : 0.5176544822
        },
        "meters" : {
          "estimated_diameter_min" : 231.5021222103,
          "estimated_diameter_max" : 517.6544821978
        },
        "miles" : {
          "estimated_diameter_min" : 0.1438487052,
          "estimated_diameter_max" : 0.3216554833
        },
        "feet" : {
          "estimated_diameter_min" : 759.5214226325,
          "estimated_diameter_max" : 1698.3415313737
        }
      },
      "is_potentially_hazardous_asteroid" : false,
      "close_approach_data" : [ {
        "close_approach_date" : "1996-09-15",
        "epoch_date_close_approach" : 842770800000,
        "relative_velocity" : {
          "kilometers_per_second" : "14.2353837522",
          "kilometers_per_hour" : "51247.381507862",
          "miles_per_hour" : "31843.1299152602"
        },
        "miss_distance" : {
          "astronomical" : "0.4001033161",
          "lunar" : "155.6401977539",
          "kilometers" : "59854608",
          "miles" : "37191928"
        },
        "orbiting_body" : "Earth"
      } ],
      "orbital_data" : {
        "orbit_id" : "32",
        "orbit_determination_date" : "2017-04-06 09:20:56",
        "orbit_uncertainty" : "0",
        "minimum_orbit_intersection" : ".10431",
        "jupiter_tisserand_invariant" : "5.779",
        "epoch_osculation" : "2458000.5",
        "eccentricity" : ".4156099429834553",
        "semi_major_axis" : "1.044158573940587",
        "inclination" : "12.61015126277415",
        "ascending_node_longitude" : "64.76404948629143",
        "orbital_period" : "389.7158913963528",
        "perihelion_distance" : ".6101958885594539",
        "perihelion_argument" : "321.1555306499532",
        "aphelion_distance" : "1.478121259321721",
        "perihelion_time" : "2458152.248435633129",
        "mean_anomaly" : "219.822403874297",
        "mean_motion" : ".9237498596993806",
        "equinox" : "J2000"
      }
    }, {
      "links" : {
        "self" : "https://api.nasa.gov/neo/rest/v1/neo/3607400?api_key=t0TVs3DtDT2H8Oy2Zy8m2eVrNsAVKAexjcZXUckd"
      },
      "neo_reference_id" : "3607400",
      "name" : "(2012 PG5)",
      "nasa_jpl_url" : "http://ssd.jpl.nasa.gov/sbdb.cgi?sstr=3607400",
      "absolute_magnitude_h" : 18.7,
      "estimated_diameter" : {
        "kilometers" : {
          "estimated_diameter_min" : 0.4836764882,
          "estimated_diameter_max" : 1.0815335068
        },
        "meters" : {
          "estimated_diameter_min" : 483.6764882185,
          "estimated_diameter_max" : 1081.533506775
        },
        "miles" : {
          "estimated_diameter_min" : 0.3005425432,
          "estimated_diameter_max" : 0.6720335566
        },
        "feet" : {
          "estimated_diameter_min" : 1586.8651696069,
          "estimated_diameter_max" : 3548.3383903678
        }
      },
      "is_potentially_hazardous_asteroid" : false,
      "close_approach_data" : [ {
        "close_approach_date" : "1996-09-15",
        "epoch_date_close_approach" : 842770800000,
        "relative_velocity" : {
          "kilometers_per_second" : "10.6572030026",
          "kilometers_per_hour" : "38365.9308092326",
          "miles_per_hour" : "23839.0973964368"
        },
        "miss_distance" : {
          "astronomical" : "0.3673288542",
          "lunar" : "142.8909301758",
          "kilometers" : "54951616",
          "miles" : "34145352"
        },
        "orbiting_body" : "Earth"
      } ],
      "orbital_data" : {
        "orbit_id" : "45",
        "orbit_determination_date" : "2017-06-17 06:17:07",
        "orbit_uncertainty" : "0",
        "minimum_orbit_intersection" : ".244072",
        "jupiter_tisserand_invariant" : "2.896",
        "epoch_osculation" : "2458000.5",
        "eccentricity" : ".5954219083678534",
        "semi_major_axis" : "3.020927488774799",
        "inclination" : "16.58773327426189",
        "ascending_node_longitude" : "157.1771656835485",
        "orbital_period" : "1917.824570835075",
        "perihelion_distance" : "1.222201078367601",
        "perihelion_argument" : "208.8467678472883",
        "aphelion_distance" : "4.819653899181997",
        "perihelion_time" : "2458121.669481312383",
        "mean_anomaly" : "337.2549512943908",
        "mean_motion" : ".1877126852344195",
        "equinox" : "J2000"
      }
    }, {
      "links" : {
        "self" : "https://api.nasa.gov/neo/rest/v1/neo/3690061?api_key=t0TVs3DtDT2H8Oy2Zy8m2eVrNsAVKAexjcZXUckd"
      },
      "neo_reference_id" : "3690061",
      "name" : "(2014 SH144)",
      "nasa_jpl_url" : "http://ssd.jpl.nasa.gov/sbdb.cgi?sstr=3690061",
      "absolute_magnitude_h" : 25.0,
      "estimated_diameter" : {
        "kilometers" : {
          "estimated_diameter_min" : 0.02658,
          "estimated_diameter_max" : 0.0594346868
        },
        "meters" : {
          "estimated_diameter_min" : 26.58,
          "estimated_diameter_max" : 59.4346868419
        },
        "miles" : {
          "estimated_diameter_min" : 0.0165160412,
          "estimated_diameter_max" : 0.0369309908
        },
        "feet" : {
          "estimated_diameter_min" : 87.2047272,
          "estimated_diameter_max" : 194.9956979785
        }
      },
      "is_potentially_hazardous_asteroid" : false,
      "close_approach_data" : [ {
        "close_approach_date" : "1996-09-15",
        "epoch_date_close_approach" : 842770800000,
        "relative_velocity" : {
          "kilometers_per_second" : "11.4155053785",
          "kilometers_per_hour" : "41095.8193624672",
          "miles_per_hour" : "25535.3439810841"
        },
        "miss_distance" : {
          "astronomical" : "0.2157246939",
          "lunar" : "83.9169082642",
          "kilometers" : "32271954",
          "miles" : "20052864"
        },
        "orbiting_body" : "Earth"
      } ],
      "orbital_data" : {
        "orbit_id" : "10",
        "orbit_determination_date" : "2017-04-06 08:38:31",
        "orbit_uncertainty" : "7",
        "minimum_orbit_intersection" : ".0607399",
        "jupiter_tisserand_invariant" : "6.357",
        "epoch_osculation" : "2458000.5",
        "eccentricity" : ".2023680576037819",
        "semi_major_axis" : ".9311372966414956",
        "inclination" : "21.93629045073118",
        "ascending_node_longitude" : ".9395301433872258",
        "orbital_period" : "328.1852142191202",
        "perihelion_distance" : ".7427048505577197",
        "perihelion_argument" : "143.9691206911181",
        "aphelion_distance" : "1.119569742725272",
        "perihelion_time" : "2458026.151085679076",
        "mean_anomaly" : "331.8622581262852",
        "mean_motion" : "1.096941557396422",
        "equinox" : "J2000"
      }
    } ]
  }
}